[{"OBJECT_NAME":"STARLINK-30052","OBJECT_ID":"2023-119K","EPOCH":"2026-03-09T22:00:01.999584","MEAN_MOTION":15.18817261,"ECCENTRICITY":0.0001361,"INCLINATION":42.9994,"RA_OF_ASC_NODE":79.4905,"ARG_OF_PERICENTER":256.0949,"MEAN_ANOMALY":348.0898,"EPHEMERIS_TYPE":0,"CLASSIFICATION_TYPE":"U","NORAD_CAT_ID":57611,"ELEMENT_SET_NO":999,"REV_AT_EPOCH":572,"BSTAR":0.053443655,"MEAN_MOTION_DOT":0.01240173,"MEAN_MOTION_DDOT":0},{"OBJECT_NAME":"OBJECT B","OBJECT_ID":"2024-153B","EPOCH":"2026-03-09T23:15:18.632160","MEAN_MOTION":15.30512917,"ECCENTRICITY":0.00113423,"INCLINATION":97.6622,"RA_OF_ASC_NODE":204.9195,"ARG_OF_PERICENTER":149.8438,"MEAN_ANOMALY":210.3457,"EPHEMERIS_TYPE":0,"CLASSIFICATION_TYPE":"U","NORAD_CAT_ID":60746,"ELEMENT_SET_NO":999,"REV_AT_EPOCH":8476,"BSTAR":0.00066193599,"MEAN_MOTION_DOT":0.00019515,"MEAN_MOTION_DDOT":0}]
